CCSDS_OMM_VERS,COMMENT,CREATION_DATE,ORIGINATOR,OBJECT_NAME,OBJECT_ID,CENTER_NAME,REF_FRAME,TIME_SYSTEM,MEAN_ELEMENT_THEORY,EPOCH,MEAN_MOTION,ECCENTRICITY,INCLINATION,RA_OF_ASC_NODE,ARG_OF_PERICENTER,MEAN_ANOMALY,EPHEMERIS_TYPE,CLASSIFICATION_TYPE,NORAD_CAT_ID,ELEMENT_SET_NO,REV_AT_EPOCH,BSTAR,MEAN_MOTION_DOT,MEAN_MOTION_DDOT,SEMIMAJOR_AXIS,PERIOD,APOAPSIS,PERIAPSIS,OBJECT_TYPE,RCS_SIZE,COUNTRY_CODE,LAUNCH_DATE,SITE,DECAY_DATE,FILE,GP_ID,TLE_LINE0,TLE_LINE1,TLE_LINE2
2,GENERATED VIA SPACE-TRACK.ORG API,2009-02-21T08:16:45,18 SPCS,LEASAT 5,1990-002B,EARTH,TEME,UTC,SGP4,2009-02-19T23:56:32.895744,1.00270847,7.26e-05,8.1098,36.0069,340.0389,233.1683,0,U,20410,999,5526,0.0001,-3.13e-06,0,42165.021,1436.11,35789.948,35783.825,PAYLOAD,LARGE,US,1990-01-09,AFETR,,675792,70011012,0 LEASAT 5,1 20410U 90002B   09050.99760296 -.00000313 +00000-0 +10000-3 0  9992,2 20410 008.1098 036.0069 0000726 340.0389 233.1683 01.00270847055264
2,GENERATED VIA SPACE-TRACK.ORG API,2009-02-20T23:41:14,18 SPCS,LEASAT 5,1990-002B,EARTH,TEME,UTC,SGP4,2009-02-20T14:25:19.381727,1.00270572,7.18e-05,8.1108,36.0038,343.6941,87.3008,0,U,20410,999,5527,0.0001,-3.12e-06,0,42165.098,1436.114,35789.991,35783.936,PAYLOAD,LARGE,US,1990-01-09,AFETR,,675634,70004796,0 LEASAT 5,1 20410U 90002B   09051.60091877 -.00000312  00000-0  10000-3 0  9992,2 20410 008.1108 036.0038 0000718 343.6941 087.3008 01.00270572 55272
2,GENERATED VIA SPACE-TRACK.ORG API,2009-02-21T18:11:35,18 SPCS,LEASAT 5,1990-002B,EARTH,TEME,UTC,SGP4,2009-02-21T16:12:36.664704,1.00270187,7.19e-05,8.1123,35.9962,341.4939,117.3839,0,U,20410,999,5528,0.0001,-3.11e-06,0,42165.206,1436.119,35790.103,35784.04,PAYLOAD,LARGE,US,1990-01-09,AFETR,,675958,70016488,0 LEASAT 5,1 20410U 90002B   09052.67542436 -.00000311  00000-0  10000-3 0  9991,2 20410 008.1123 035.9962 0000719 341.4939 117.3839 01.00270187 55286
2,GENERATED VIA SPACE-TRACK.ORG API,2009-02-23T21:28:59,18 SPCS,LEASAT 5,1990-002B,EARTH,TEME,UTC,SGP4,2009-02-23T18:04:51.880799,1.00269932,5.81e-05,8.1169,35.9703,27.3542,101.6547,0,U,20410,999,5530,0.0001,-3.08e-06,0,42165.278,1436.123,35789.593,35784.693,PAYLOAD,LARGE,US,1990-01-09,AFETR,,676882,70046189,0 LEASAT 5,1 20410U 90002B   09054.75337825 -.00000308  00000-0  10000-3 0  9992,2 20410 008.1169 035.9703 0000581 027.3542 101.6547 01.00269932 55307
2,GENERATED VIA SPACE-TRACK.ORG API,2009-02-26T08:26:40,18 SPCS,LEASAT 5,1990-002B,EARTH,TEME,UTC,SGP4,2009-02-26T09:18:38.662272,1.00268543,0.0001357,8.1216,35.9463,247.5615,112.5493,0,U,20410,999,5533,0.0001,0.0,0,42165.667,1436.143,35793.254,35781.81,PAYLOAD,LARGE,US,1990-01-09,AFETR,,678090,70087047,0 LEASAT 5,1 20410U 90002B   09057.38794748  .00000000  00000-0  10000-3 0  9993,2 20410 008.1216 035.9463 0001357 247.5615 112.5493 01.00268543 55333
2,GENERATED VIA SPACE-TRACK.ORG API,2009-02-26T17:13:28,18 SPCS,LEASAT 5,1990-002B,EARTH,TEME,UTC,SGP4,2009-02-26T20:10:29.763264,1.00271186,6.32e-05,8.1229,35.9457,339.6157,183.8969,0,U,20410,999,5533,0.0001,-3.04e-06,0,42164.926,1436.105,35789.456,35784.127,PAYLOAD,LARGE,US,1990-01-09,AFETR,,678343,70089639,0 LEASAT 5,1 20410U 90002B   09057.84062226 -.00000304  00000-0  10000-3 0  9991,2 20410 008.1229 035.9457 0000632 339.6157 183.8969 01.00271186 55335
2,GENERATED VIA SPACE-TRACK.ORG API,2009-02-28T09:12:10,18 SPCS,LEASAT 5,1990-002B,EARTH,TEME,UTC,SGP4,2009-02-27T18:06:36.099071,1.00270914,6.48e-05,8.1246,35.9414,339.399,154.0443,0,U,20410,999,5534,0.0001,-3.05e-06,0,42165.003,1436.109,35789.6,35784.135,PAYLOAD,LARGE,US,1990-01-09,AFETR,,679337,70113120,0 LEASAT 5,1 20410U 90002B   09058.75458448 -.00000305 +00000-0 +10000-3 0  9998,2 20410 008.1246 035.9414 0000648 339.3990 154.0443 01.00270914055342
2,GENERATED VIA SPACE-TRACK.ORG API,2009-02-28T15:39:46,18 SPCS,LEASAT 5,1990-002B,EARTH,TEME,UTC,SGP4,2009-02-28T21:17:36.406751,1.00270613,5.7e-05,8.1266,35.9387,343.4045,198.9088,0,U,20410,999,5535,0.0001,-3.06e-06,0,42165.087,1436.113,35789.355,35784.549,PAYLOAD,LARGE,US,1990-01-09,AFETR,,679398,70117519,0 LEASAT 5,1 20410U 90002B   09059.88722693 -.00000306  00000-0  10000-3 0  9990,2 20410 008.1266 035.9387 0000570 343.4045 198.9088 01.00270613 55353
2,GENERATED VIA SPACE-TRACK.ORG API,2009-03-01T15:46:18,18 SPCS,LEASAT 5,1990-002B,EARTH,TEME,UTC,SGP4,2009-03-01T14:26:03.730848,1.00270912,0.0001443,8.1262,35.9474,237.4203,202.7184,0,U,20410,999,5536,0.0001,-3.07e-06,0,42165.003,1436.109,35792.953,35780.784,PAYLOAD,LARGE,US,1990-01-09,AFETR,,679771,70131921,0 LEASAT 5,1 20410U 90002B   09060.60143207 -.00000307  00000-0  10000-3 0  9991,2 20410 008.1262 035.9474 0001443 237.4203 202.7184 01.00270912 55368
2,GENERATED VIA SPACE-TRACK.ORG API,2009-03-03T08:56:32,18 SPCS,LEASAT 5,1990-002B,EARTH,TEME,UTC,SGP4,2009-03-01T19:25:08.372351,1.0027086,0.00012,8.1266,35.9464,237.9406,277.1716,0,U,20410,999,5536,0.0001,-3.08e-06,0,42165.018,1436.11,35791.943,35781.823,PAYLOAD,LARGE,US,1990-01-09,AFETR,,680492,70156191,0 LEASAT 5,1 20410U 90002B   09060.80912468 -.00000308 +00000-0 +10000-3 0  9997,2 20410 008.1266 035.9464 0001200 237.9406 277.1716 01.00270860055361
2,GENERATED VIA SPACE-TRACK.ORG API,2009-03-04T15:48:29,18 SPCS,LEASAT 5,1990-002B,EARTH,TEME,UTC,SGP4,2009-03-04T16:54:26.426591,1.00270351,3.32e-05,8.1317,35.9322,240.8532,239.4369,0,U,20410,999,5539,0.0001,-3.17e-06,0,42165.16,1436.117,35788.425,35785.626,PAYLOAD,LARGE,US,1990-01-09,AFETR,,681321,70176307,0 LEASAT 5,1 20410U 90002B   09063.70447253 -.00000317  00000-0  10000-3 0  9994,2 20410 008.1317 035.9322 0000332 240.8532 239.4369 01.00270351 55392
2,GENERATED VIA SPACE-TRACK.ORG API,2009-03-05T15:39:55,18 SPCS,LEASAT 5,1990-002B,EARTH,TEME,UTC,SGP4,2009-03-04T23:36:33.518591,1.00270137,1.44e-05,8.1322,35.9307,329.3856,251.7044,0,U,20410,999,5539,0.0001,-3.18e-06,0,42165.22,1436.12,35787.693,35786.478,PAYLOAD,LARGE,US,1990-01-09,AFETR,,681809,70190280,0 LEASAT 5,1 20410U 90002B   09063.98372128 -.00000318  00000-0  10000-3 0  9993,2 20410 008.1322 035.9307 0000144 329.3856 251.7044 01.00270137 55393
2,GENERATED VIA SPACE-TRACK.ORG API,2009-03-06T23:39:57,18 SPCS,LEASAT 5,1990-002B,EARTH,TEME,UTC,SGP4,2009-03-06T21:13:12.190367,1.00269097,5.5e-05,8.1357,35.9234,277.5943,269.5209,0,U,20410,999,5541,0.0001,-3.24e-06,0,42165.512,1436.135,35789.696,35785.058,PAYLOAD,LARGE,US,1990-01-09,AFETR,,682476,70206378,0 LEASAT 5,1 20410U 90002B   09065.88416887 -.00000324  00000-0  10000-3 0  9992,2 20410 008.1357 035.9234 0000550 277.5943 269.5209 01.00269097 55418
2,GENERATED VIA SPACE-TRACK.ORG API,2009-03-07T08:55:40,18 SPCS,LEASAT 5,1990-002B,EARTH,TEME,UTC,SGP4,2009-03-06T21:13:12.190367,1.00269097,5.5e-05,8.1357,35.9234,277.5943,269.5209,0,U,20410,999,5541,0.0001,-3.24e-06,0,42165.512,1436.135,35789.696,35785.058,PAYLOAD,LARGE,US,1990-01-09,AFETR,,682647,70213717,0 LEASAT 5,1 20410U 90002B   09065.88416887 -.00000324 +00000-0 +10000-3 0  9992,2 20410 008.1357 035.9234 0000550 277.5943 269.5209 01.00269097055418
2,GENERATED VIA SPACE-TRACK.ORG API,2009-03-09T23:54:37,18 SPCS,LEASAT 5,1990-002B,EARTH,TEME,UTC,SGP4,2009-03-09T20:39:05.098751,1.0027138,0.0002941,8.1418,35.9097,256.7494,284.8124,0,U,20410,999,5544,0.0001,-3.26e-06,0,42164.872,1436.102,35799.138,35774.336,PAYLOAD,LARGE,US,1990-01-09,AFETR,,683739,70247811,0 LEASAT 5,1 20410U 90002B   09068.86047568 -.00000326  00000-0  10000-3 0  9991,2 20410 008.1418 035.9097 0002941 256.7494 284.8124 01.00271380 55446
2,GENERATED VIA SPACE-TRACK.ORG API,2009-03-10T12:32:16,18 SPCS,LEASAT 5,1990-002B,EARTH,TEME,UTC,SGP4,2009-03-10T08:31:19.775135,1.00264578,0.0001769,8.143,35.8999,255.3226,104.7476,0,U,20410,999,5545,0.0001,0.0,0,42166.779,1436.2,35796.103,35781.185,PAYLOAD,LARGE,US,1990-01-09,AFETR,,683988,70259823,0 LEASAT 5,1 20410U 90002B   09069.35508999  .00000000  00000-0  10000-3 0  9994,2 20410 008.1430 035.8999 0001769 255.3226 104.7476 01.00264578 55457
2,GENERATED VIA SPACE-TRACK.ORG API,2009-03-13T04:55:26,18 SPCS,LEASAT 5,1990-002B,EARTH,TEME,UTC,SGP4,2009-03-12T23:44:10.055328,1.00270209,0.0003649,8.1475,35.8919,252.3016,338.6271,0,U,20410,999,5547,0.0001,-3.21e-06,0,42165.2,1436.119,35802.451,35771.679,PAYLOAD,LARGE,US,1990-01-09,AFETR,,685266,70292424,0 LEASAT 5,1 20410U 90002B   09071.98900527 -.00000321  00000-0  10000-3 0  9996,2 20410 008.1475 035.8919 0003649 252.3016 338.6271 01.00270209 55472
2,GENERATED VIA SPACE-TRACK.ORG API,2009-03-15T11:51:55,18 SPCS,LEASAT 5,1990-002B,EARTH,TEME,UTC,SGP4,2009-03-14T23:30:00.808127,1.00270065,0.0003159,8.1511,35.8811,260.2175,329.1444,0,U,20410,999,5549,0.0001,-3.19e-06,0,42165.241,1436.121,35800.426,35773.786,PAYLOAD,LARGE,US,1990-01-09,AFETR,,686151,70328978,0 LEASAT 5,1 20410U 90002B   09073.97917602 -.00000319  00000-0  10000-3 0  9996,2 20410 008.1511 035.8811 0003159 260.2175 329.1444 01.00270065 55493
2,GENERATED VIA SPACE-TRACK.ORG API,2009-03-16T05:05:21,18 SPCS,LEASAT 5,1990-002B,EARTH,TEME,UTC,SGP4,2009-03-15T08:11:13.199135,1.00263872,0.0004969,8.1619,35.9133,270.566,89.4113,0,U,20410,999,5550,0.0001,0.0,0,42166.977,1436.21,35809.795,35767.889,PAYLOAD,LARGE,US,1990-01-09,AFETR,,686297,70331945,0 LEASAT 5,1 20410U 90002B   09074.34112499  .00000000  00000-0  10000-3 0  9995,2 20410 008.1619 035.9133 0004969 270.5660 089.4113 01.00263872 55502
2,GENERATED VIA SPACE-TRACK.ORG API,2009-03-18T08:32:24,18 SPCS,LEASAT 5,1990-002B,EARTH,TEME,UTC,SGP4,2009-03-17T22:33:27.597600,1.00270869,7.56e-05,8.1566,35.8706,21.5018,196.6392,0,U,20410,999,5552,0.0001,-3.16e-06,0,42165.015,1436.11,35790.068,35783.693,PAYLOAD,LARGE,US,1990-01-09,AFETR,,687700,70374359,0 LEASAT 5,1 20410U 90002B   09076.93990275 -.00000316  00000-0  10000-3 0  9999,2 20410 008.1566 035.8706 0000756 021.5018 196.6392 01.00270869 55525
